[{"OBJECT_NAME":"ASTRA 1P (SES-24)","OBJECT_ID":"2024-115A","EPOCH":"2026-04-24T06:53:54.671712","MEAN_MOTION":1.00262578,"ECCENTRICITY":0.00037434,"INCLINATION":0.0784,"RA_OF_ASC_NODE":43.1438,"ARG_OF_PERICENTER":261.415,"MEAN_ANOMALY":30.4242,"EPHEMERIS_TYPE":0,"CLASSIFICATION_TYPE":"U","NORAD_CAT_ID":60086,"ELEMENT_SET_NO":999,"REV_AT_EPOCH":665,"BSTAR":0,"MEAN_MOTION_DOT":1.05e-6,"MEAN_MOTION_DDOT":0},{"OBJECT_NAME":"GOES 19","OBJECT_ID":"2024-119A","EPOCH":"2026-04-25T20:49:38.771040","MEAN_MOTION":1.00270221,"ECCENTRICITY":5.765e-5,"INCLINATION":0.0279,"RA_OF_ASC_NODE":93.9673,"ARG_OF_PERICENTER":349.8122,"MEAN_ANOMALY":7.3054,"EPHEMERIS_TYPE":0,"CLASSIFICATION_TYPE":"U","NORAD_CAT_ID":60133,"ELEMENT_SET_NO":999,"REV_AT_EPOCH":643,"BSTAR":0,"MEAN_MOTION_DOT":-2.62e-6,"MEAN_MOTION_DDOT":0},{"OBJECT_NAME":"ZHONGXING-3A","OBJECT_ID":"2024-122A","EPOCH":"2026-04-24T21:46:15.941280","MEAN_MOTION":1.00272898,"ECCENTRICITY":0.0001849,"INCLINATION":0.044,"RA_OF_ASC_NODE":52.0758,"ARG_OF_PERICENTER":336.8446,"MEAN_ANOMALY":252.1611,"EPHEMERIS_TYPE":0,"CLASSIFICATION_TYPE":"U","NORAD_CAT_ID":60179,"ELEMENT_SET_NO":999,"REV_AT_EPOCH":677,"BSTAR":0,"MEAN_MOTION_DOT":-3.28e-6,"MEAN_MOTION_DDOT":0},{"OBJECT_NAME":"TURKSAT 6A","OBJECT_ID":"2024-127A","EPOCH":"2026-04-25T22:21:58.428000","MEAN_MOTION":1.00271234,"ECCENTRICITY":0.00011682,"INCLINATION":0.0323,"RA_OF_ASC_NODE":174.8604,"ARG_OF_PERICENTER":165.6285,"MEAN_ANOMALY":250.9358,"EPHEMERIS_TYPE":0,"CLASSIFICATION_TYPE":"U","NORAD_CAT_ID":60233,"ELEMENT_SET_NO":999,"REV_AT_EPOCH":649,"BSTAR":0,"MEAN_MOTION_DOT":1.33e-6,"MEAN_MOTION_DDOT":0},{"OBJECT_NAME":"HULIANWAN GAOGUI-02 (HG-02)","OBJECT_ID":"2024-135A","EPOCH":"2026-04-24T19:30:52.092288","MEAN_MOTION":1.00270695,"ECCENTRICITY":0.00087786,"INCLINATION":0.045,"RA_OF_ASC_NODE":6.6612,"ARG_OF_PERICENTER":351.5679,"MEAN_ANOMALY":300.3816,"EPHEMERIS_TYPE":0,"CLASSIFICATION_TYPE":"U","NORAD_CAT_ID":60327,"ELEMENT_SET_NO":999,"REV_AT_EPOCH":696,"BSTAR":0,"MEAN_MOTION_DOT":-1.88e-6,"MEAN_MOTION_DDOT":0},{"OBJECT_NAME":"ZHONGXING-4A","OBJECT_ID":"2024-151A","EPOCH":"2026-04-25T22:43:41.346048","MEAN_MOTION":1.0026943,"ECCENTRICITY":0.00011541,"INCLINATION":1.4478,"RA_OF_ASC_NODE":271.4524,"ARG_OF_PERICENTER":104.3787,"MEAN_ANOMALY":297.249,"EPHEMERIS_TYPE":0,"CLASSIFICATION_TYPE":"U","NORAD_CAT_ID":60606,"ELEMENT_SET_NO":999,"REV_AT_EPOCH":623,"BSTAR":0,"MEAN_MOTION_DOT":-3.78e-6,"MEAN_MOTION_DDOT":0},{"OBJECT_NAME":"HULIANWAN GAOGUI-03 (HG-03)","OBJECT_ID":"2024-181A","EPOCH":"2026-04-24T21:50:29.724000","MEAN_MOTION":1.00270573,"ECCENTRICITY":7.658e-5,"INCLINATION":0.046,"RA_OF_ASC_NODE":20.0221,"ARG_OF_PERICENTER":103.8251,"MEAN_ANOMALY":339.5815,"EPHEMERIS_TYPE":0,"CLASSIFICATION_TYPE":"U","NORAD_CAT_ID":61503,"ELEMENT_SET_NO":999,"REV_AT_EPOCH":629,"BSTAR":0,"MEAN_MOTION_DOT":-2.55e-6,"MEAN_MOTION_DDOT":0},{"OBJECT_NAME":"DSN-3 (KIRAMEKI-3)","OBJECT_ID":"2024-198A","EPOCH":"2026-04-25T22:51:03.140352","MEAN_MOTION":1.00268715,"ECCENTRICITY":7.309e-5,"INCLINATION":0.0171,"RA_OF_ASC_NODE":118.7553,"ARG_OF_PERICENTER":244.9327,"MEAN_ANOMALY":337.1009,"EPHEMERIS_TYPE":0,"CLASSIFICATION_TYPE":"U","NORAD_CAT_ID":61733,"ELEMENT_SET_NO":999,"REV_AT_EPOCH":539,"BSTAR":0,"MEAN_MOTION_DOT":0,"MEAN_MOTION_DDOT":0},{"OBJECT_NAME":"KOREASAT 6A","OBJECT_ID":"2024-206A","EPOCH":"2026-04-25T22:21:02.880576","MEAN_MOTION":1.00271574,"ECCENTRICITY":9.058e-5,"INCLINATION":0.0361,"RA_OF_ASC_NODE":96.9338,"ARG_OF_PERICENTER":274.6503,"MEAN_ANOMALY":293.6554,"EPHEMERIS_TYPE":0,"CLASSIFICATION_TYPE":"U","NORAD_CAT_ID":61910,"ELEMENT_SET_NO":999,"REV_AT_EPOCH":531,"BSTAR":0,"MEAN_MOTION_DOT":-3.75e-6,"MEAN_MOTION_DDOT":0},{"OBJECT_NAME":"OPTUS-X (ADS-01)","OBJECT_ID":"2024-212A","EPOCH":"2026-04-25T21:11:57.642720","MEAN_MOTION":1.00270629,"ECCENTRICITY":0.00012771,"INCLINATION":0.0137,"RA_OF_ASC_NODE":270.3643,"ARG_OF_PERICENTER":160.2493,"MEAN_ANOMALY":257.6837,"EPHEMERIS_TYPE":0,"CLASSIFICATION_TYPE":"U","NORAD_CAT_ID":62006,"ELEMENT_SET_NO":999,"REV_AT_EPOCH":523,"BSTAR":0,"MEAN_MOTION_DOT":-1.57e-6,"MEAN_MOTION_DDOT":0},{"OBJECT_NAME":"GSAT-N2 (GSAT-20)","OBJECT_ID":"2024-214A","EPOCH":"2026-04-25T22:59:38.461920","MEAN_MOTION":1.00269291,"ECCENTRICITY":0.00012367,"INCLINATION":0.059,"RA_OF_ASC_NODE":83.437,"ARG_OF_PERICENTER":29.7564,"MEAN_ANOMALY":153.7091,"EPHEMERIS_TYPE":0,"CLASSIFICATION_TYPE":"U","NORAD_CAT_ID":62028,"ELEMENT_SET_NO":999,"REV_AT_EPOCH":537,"BSTAR":0,"MEAN_MOTION_DOT":-3.3e-7,"MEAN_MOTION_DDOT":0},{"OBJECT_NAME":"SXM-9","OBJECT_ID":"2024-234A","EPOCH":"2026-04-23T06:26:45.401856","MEAN_MOTION":1.002701,"ECCENTRICITY":0.00047305,"INCLINATION":0.0162,"RA_OF_ASC_NODE":325.1725,"ARG_OF_PERICENTER":344.4783,"MEAN_ANOMALY":273.1916,"EPHEMERIS_TYPE":0,"CLASSIFICATION_TYPE":"U","NORAD_CAT_ID":62259,"ELEMENT_SET_NO":999,"REV_AT_EPOCH":502,"BSTAR":0,"MEAN_MOTION_DOT":-2.17e-6,"MEAN_MOTION_DDOT":0},{"OBJECT_NAME":"TJS-12","OBJECT_ID":"2024-246A","EPOCH":"2026-04-25T21:09:05.418144","MEAN_MOTION":1.00268497,"ECCENTRICITY":0.00021917,"INCLINATION":0.7876,"RA_OF_ASC_NODE":294.9042,"ARG_OF_PERICENTER":51.4929,"MEAN_ANOMALY":331.2386,"EPHEMERIS_TYPE":0,"CLASSIFICATION_TYPE":"U","NORAD_CAT_ID":62374,"ELEMENT_SET_NO":999,"REV_AT_EPOCH":504,"BSTAR":0,"MEAN_MOTION_DOT":-2.47e-6,"MEAN_MOTION_DDOT":0},{"OBJECT_NAME":"NUVIEW ALPHA","OBJECT_ID":"2024-252B","EPOCH":"2026-04-25T07:20:55.624704","MEAN_MOTION":1.0027116,"ECCENTRICITY":0.00015861,"INCLINATION":0.072,"RA_OF_ASC_NODE":50.3936,"ARG_OF_PERICENTER":339.1302,"MEAN_ANOMALY":210.918,"EPHEMERIS_TYPE":0,"CLASSIFICATION_TYPE":"U","NORAD_CAT_ID":62455,"ELEMENT_SET_NO":999,"REV_AT_EPOCH":329,"BSTAR":0,"MEAN_MOTION_DOT":-2.29e-6,"MEAN_MOTION_DDOT":0},{"OBJECT_NAME":"AGILA","OBJECT_ID":"2024-252C","EPOCH":"2026-04-25T07:29:18.457152","MEAN_MOTION":1.00271209,"ECCENTRICITY":0.00012203,"INCLINATION":0.0565,"RA_OF_ASC_NODE":103.0108,"ARG_OF_PERICENTER":300.4574,"MEAN_ANOMALY":74.3338,"EPHEMERIS_TYPE":0,"CLASSIFICATION_TYPE":"U","NORAD_CAT_ID":62456,"ELEMENT_SET_NO":999,"REV_AT_EPOCH":463,"BSTAR":0,"MEAN_MOTION_DOT":-1.96e-6,"MEAN_MOTION_DDOT":0},{"OBJECT_NAME":"NUVIEW BRAVO","OBJECT_ID":"2024-252D","EPOCH":"2026-04-25T09:47:29.254272","MEAN_MOTION":1.00270465,"ECCENTRICITY":0.0001151,"INCLINATION":0.0724,"RA_OF_ASC_NODE":147.4443,"ARG_OF_PERICENTER":311.4201,"MEAN_ANOMALY":178.3117,"EPHEMERIS_TYPE":0,"CLASSIFICATION_TYPE":"U","NORAD_CAT_ID":62457,"ELEMENT_SET_NO":999,"REV_AT_EPOCH":326,"BSTAR":0,"MEAN_MOTION_DOT":-2.29e-6,"MEAN_MOTION_DDOT":0},{"OBJECT_NAME":"THURAYA-4","OBJECT_ID":"2025-001A","EPOCH":"2026-04-25T22:51:38.515968","MEAN_MOTION":1.00274322,"ECCENTRICITY":1.78e-5,"INCLINATION":0.0457,"RA_OF_ASC_NODE":77.0852,"ARG_OF_PERICENTER":211.9973,"MEAN_ANOMALY":312.0551,"EPHEMERIS_TYPE":0,"CLASSIFICATION_TYPE":"U","NORAD_CAT_ID":62483,"ELEMENT_SET_NO":999,"REV_AT_EPOCH":365,"BSTAR":0,"MEAN_MOTION_DOT":1.26e-6,"MEAN_MOTION_DDOT":0},{"OBJECT_NAME":"SHIJIAN-25 (SJ-25)","OBJECT_ID":"2025-002A","EPOCH":"2026-04-25T11:31:49.094112","MEAN_MOTION":1.00259788,"ECCENTRICITY":0.0051127,"INCLINATION":4.9907,"RA_OF_ASC_NODE":61.4724,"ARG_OF_PERICENTER":168.3426,"MEAN_ANOMALY":283.8083,"EPHEMERIS_TYPE":0,"CLASSIFICATION_TYPE":"U","NORAD_CAT_ID":62485,"ELEMENT_SET_NO":999,"REV_AT_EPOCH":483,"BSTAR":0,"MEAN_MOTION_DOT":-3.62e-6,"MEAN_MOTION_DDOT":0},{"OBJECT_NAME":"TJS-14","OBJECT_ID":"2025-017A","EPOCH":"2026-04-25T22:15:14.074272","MEAN_MOTION":1.00272555,"ECCENTRICITY":8.802e-5,"INCLINATION":0.9025,"RA_OF_ASC_NODE":292.4895,"ARG_OF_PERICENTER":68.0756,"MEAN_ANOMALY":205.5261,"EPHEMERIS_TYPE":0,"CLASSIFICATION_TYPE":"U","NORAD_CAT_ID":62804,"ELEMENT_SET_NO":999,"REV_AT_EPOCH":474,"BSTAR":0,"MEAN_MOTION_DOT":1.0e-6,"MEAN_MOTION_DDOT":0},{"OBJECT_NAME":"SPAINSAT NG I","OBJECT_ID":"2025-021A","EPOCH":"2026-04-24T15:30:03.536928","MEAN_MOTION":1.00273459,"ECCENTRICITY":4.965e-5,"INCLINATION":0.0187,"RA_OF_ASC_NODE":256.5608,"ARG_OF_PERICENTER":44.0999,"MEAN_ANOMALY":173.5175,"EPHEMERIS_TYPE":0,"CLASSIFICATION_TYPE":"U","NORAD_CAT_ID":62852,"ELEMENT_SET_NO":999,"REV_AT_EPOCH":345,"BSTAR":0,"MEAN_MOTION_DOT":1.37e-6,"MEAN_MOTION_DDOT":0},{"OBJECT_NAME":"QZS-6 (MICHIBIKI-6)","OBJECT_ID":"2025-023A","EPOCH":"2026-04-25T23:09:52.117056","MEAN_MOTION":1.00274269,"ECCENTRICITY":0.00025103,"INCLINATION":0.0137,"RA_OF_ASC_NODE":71.954,"ARG_OF_PERICENTER":329.2789,"MEAN_ANOMALY":250.6775,"EPHEMERIS_TYPE":0,"CLASSIFICATION_TYPE":"U","NORAD_CAT_ID":62876,"ELEMENT_SET_NO":999,"REV_AT_EPOCH":443,"BSTAR":0,"MEAN_MOTION_DOT":-2.47e-6,"MEAN_MOTION_DDOT":0},{"OBJECT_NAME":"ZHONGXING-10R","OBJECT_ID":"2025-036A","EPOCH":"2026-04-25T23:28:16.812768","MEAN_MOTION":1.00270818,"ECCENTRICITY":0.00013053,"INCLINATION":0.015,"RA_OF_ASC_NODE":232.1662,"ARG_OF_PERICENTER":250.9937,"MEAN_ANOMALY":193.4173,"EPHEMERIS_TYPE":0,"CLASSIFICATION_TYPE":"U","NORAD_CAT_ID":63075,"ELEMENT_SET_NO":999,"REV_AT_EPOCH":443,"BSTAR":0,"MEAN_MOTION_DOT":-3.65e-6,"MEAN_MOTION_DDOT":0},{"OBJECT_NAME":"TJS-15","OBJECT_ID":"2025-045A","EPOCH":"2026-04-25T12:20:52.134720","MEAN_MOTION":1.00270282,"ECCENTRICITY":0.0006857,"INCLINATION":0.2773,"RA_OF_ASC_NODE":84.5285,"ARG_OF_PERICENTER":283.5809,"MEAN_ANOMALY":124.9499,"EPHEMERIS_TYPE":0,"CLASSIFICATION_TYPE":"U","NORAD_CAT_ID":63157,"ELEMENT_SET_NO":999,"REV_AT_EPOCH":423,"BSTAR":0,"MEAN_MOTION_DOT":-2.78e-6,"MEAN_MOTION_DDOT":0},{"OBJECT_NAME":"TIANLIAN 2-04","OBJECT_ID":"2025-062A","EPOCH":"2026-04-25T13:59:20.194368","MEAN_MOTION":1.00271212,"ECCENTRICITY":0.00331217,"INCLINATION":4.5089,"RA_OF_ASC_NODE":275.1854,"ARG_OF_PERICENTER":11.3401,"MEAN_ANOMALY":216.9447,"EPHEMERIS_TYPE":0,"CLASSIFICATION_TYPE":"U","NORAD_CAT_ID":63361,"ELEMENT_SET_NO":999,"REV_AT_EPOCH":407,"BSTAR":0,"MEAN_MOTION_DOT":-1.57e-6,"MEAN_MOTION_DDOT":0}]
